CSS (TIANHE)            
1 48274U 21035A   24053.35842385  .00033159  00000+0  36836-3 0  9997
2 48274  41.4682  70.8577 0008655   1.8066 358.2803 15.62165235160968
